STARLINK-35425          
1 65874U 25223W   26163.85878632  .00020414  00000+0  61363-3 0  9991
2 65874  53.1589 211.6158 0001182  81.8103 278.3033 15.34402559 38780
STARLINK-34688          
1 65875U 25223X   26163.83563530  .00019416  00000+0  58407-3 0  9993
2 65875  53.1576 211.4704 0000163  81.1761 278.9260 15.34410391 38784
STARLINK-34438          
1 65876U 25223Y   26163.29360410  .00025145  00000+0  75277-3 0  9996
2 65876  53.1594 214.4872 0001347 117.5126 242.6014 15.34402928 38690
STARLINK-35462          
1 65877U 25223Z   26163.29397835  .00017650  00000+0  60629-3 0  9995
2 65877  53.1579 214.4862 0001152 100.8915 259.2215 15.30218071 38695
STARLINK-35453          
1 65878U 25223AA  26163.82722132  .00018379  00000+0  55368-3 0  9990
2 65878  53.1591 211.4159 0001173  81.2236 278.8899 15.34403069 38789
STARLINK-35418          
1 65879U 25223AB  26163.84195183  .00020613  00000+0  61930-3 0  9999
2 65879  53.1589 211.5074 0001201  95.6824 264.4315 15.34411978 38780
STARLINK-35445          
1 65880U 25223AC  26162.46988727  .00014132  00000+0  42876-3 0  9999
2 65880  53.1576 217.8706 0001005 105.1070 255.0044 15.34387660 38573
STARLINK-35464          
1 65881U 25223AD  26162.45305616  .00023603  00000+0  70767-3 0  9992
2 65881  53.1579 217.7705 0001208  86.6368 273.4773 15.34392238 38573
STARLINK-35270          
1 65882U 25224A   26163.06568476 -.00003175  00000+0 -82859-4 0  9997
2 65882  53.1574 291.5760 0001995  82.9811 277.1418 15.34392497 39299
STARLINK-35367          
1 65883U 25224B   26163.05305408  .00018186  00000+0  54802-3 0  9993
2 65883  53.1592 291.5007 0001101 123.7398 236.3710 15.34402357 39296
STARLINK-35384          
1 65884U 25224C   26163.07302389  .00015967  00000+0  54983-3 0  9995
2 65884  53.1601 293.0336 0000917  90.6896 269.4209 15.30212634 39270
STARLINK-35415          
1 65885U 25224D   26162.65591612  .00049416  00000+0  14618-2 0  9994
2 65885  53.1592 293.2859 0001343 119.7697 240.3439 15.34448943 39189
STARLINK-35413          
1 65886U 25224E   26162.65172070  .00026874  00000+0  80344-3 0  9991
2 65886  53.1603 293.2567 0001077 107.8721 252.2400 15.34408660 39181
STARLINK-35332          
1 65887U 25224F   26162.57816760  .00026526  00000+0  79326-3 0  9996
2 65887  53.1596 293.5077 0001310 107.1850 252.9296 15.34406681 39257
STARLINK-35362          
1 65888U 25224G   26163.08042070  .00022472  00000+0  76920-3 0  9992
2 65888  53.1612 293.0833 0001283  92.8936 267.2211 15.30173178 39272
STARLINK-35193          
1 65889U 25224H   26163.08990982  .00016493  00000+0  56775-3 0  9999
2 65889  53.1609 293.1315 0000867  87.2021 272.9079 15.30199333 39305
STARLINK-34542          
1 65890U 25224J   26162.62955400  .00020301  00000+0  69638-3 0  9991
2 65890  53.1627 295.2450 0001453  99.2650 260.8516 15.30167385 39251
STARLINK-34791          
1 65891U 25224K   26163.09624326  .00019755  00000+0  67710-3 0  9994
2 65891  53.1618 293.1775 0001690  43.9464 316.1671 15.30211563 39324
STARLINK-34853          
1 65892U 25224L   26163.05936622  .00033706  00000+0  10038-2 0  9998
2 65892  53.1588 291.5363 0001375  68.8229 291.2921 15.34414569 39271
STARLINK-34921          
1 65893U 25224M   26163.08357645  .00032722  00000+0  11116-2 0  9999
2 65893  53.1623 293.0919 0000646  56.7395 303.3668 15.30212996 39321
STARLINK-34672          
1 65894U 25224N   26163.07619319  .00015744  00000+0  54261-3 0  9992
2 65894  53.1598 293.0456 0001429  81.1520 278.9642 15.30196509 39321
STARLINK-34898          
1 65895U 25224P   26163.78006808  .00033803  00000+0  10066-2 0  9994
2 65895  53.1599 288.2038 0001164  90.1067 270.0068 15.34415954 39458
STARLINK-34906          
1 65896U 25224Q   26163.09025992  .00032626  00000+0  10584-2 0  9991
2 65896  53.1609 292.4264 0001280  83.5963 276.5184 15.31702353 39335
STARLINK-34934          
1 65897U 25224R   26163.05095295  .00032890  00000+0  98023-3 0  9999
2 65897  53.1589 291.4700 0001148  72.6813 287.4315 15.34402307 39294
STARLINK-34936          
1 65898U 25224S   26163.05725774  .00021225  00000+0  63825-3 0  9994
2 65898  53.1589 291.5118 0000992  89.1625 270.9492 15.34364224 39343
STARLINK-35272          
1 65899U 25224T   26162.64961428  .00026542  00000+0  79378-3 0  9994
2 65899  53.1599 293.2336 0000959  92.0118 268.0995 15.34405028 39275
STARLINK-35264          
1 65900U 25224U   26162.64541325  .00025345  00000+0  75962-3 0  9992
2 65900  53.1599 293.2060 0001029 110.6994 249.4119 15.34362831 39275
STARLINK-35249          
1 65901U 25224V   26163.07830243  .00014445  00000+0  49880-3 0  9990
2 65901  53.1605 293.0579 0001420  73.6466 286.4690 15.30206033 39300
STARLINK-35278          
1 65902U 25224W   26163.08884505  .00023579  00000+0  80637-3 0  9995
2 65902  53.1608 293.1219 0001424  80.0351 280.0811 15.30173337 39322
STARLINK-35210          
1 65903U 25224X   26163.09835261  .00019335  00000+0  66299-3 0  9995
2 65903  53.1610 293.1822 0001311  86.4231 273.6920 15.30211878 39308
