OBJECT_NAME,OBJECT_ID,EPOCH,MEAN_MOTION,ECCENTRICITY,INCLINATION,RA_OF_ASC_NODE,ARG_OF_PERICENTER,MEAN_ANOMALY,EPHEMERIS_TYPE,CLASSIFICATION_TYPE,NORAD_CAT_ID,ELEMENT_SET_NO,REV_AT_EPOCH,BSTAR,MEAN_MOTION_DOT,MEAN_MOTION_DDOT
STARLINK-35425,2025-223W,2026-06-12T20:36:39.138048,15.34402559,.0001182,53.1589,211.6158,81.8103,278.3033,0,U,65874,999,3878,.61363E-3,.20414E-3,0
STARLINK-34688,2025-223X,2026-06-12T20:03:18.889920,15.34410391,.0000163,53.1576,211.4704,81.1761,278.9260,0,U,65875,999,3878,.58407E-3,.19416E-3,0
STARLINK-34438,2025-223Y,2026-06-12T07:02:47.394240,15.34402928,.00013475,53.1594,214.4872,117.5126,242.6014,0,U,65876,999,3869,.75276777E-3,.25145E-3,0
STARLINK-35462,2025-223Z,2026-06-12T07:03:19.729440,15.30218071,.00011523,53.1579,214.4862,100.8915,259.2215,0,U,65877,999,3869,.6062855E-3,.1765E-3,0
STARLINK-35453,2025-223AA,2026-06-12T19:51:11.922048,15.34403069,.0001173,53.1591,211.4159,81.2236,278.8899,0,U,65878,999,3878,.55368E-3,.18379E-3,0
STARLINK-35418,2025-223AB,2026-06-12T20:12:24.638112,15.34411978,.0001201,53.1589,211.5074,95.6824,264.4315,0,U,65879,999,3878,.6193E-3,.20613E-3,0
STARLINK-35445,2025-223AC,2026-06-11T11:16:38.260128,15.34387660,.0001005,53.1576,217.8706,105.1070,255.0044,0,U,65880,999,3857,.42876E-3,.14132E-3,0
STARLINK-35464,2025-223AD,2026-06-11T10:52:24.052224,15.34392238,.0001208,53.1579,217.7705,86.6368,273.4773,0,U,65881,999,3857,.70767E-3,.23603E-3,0
STARLINK-35270,2025-224A,2026-06-12T01:34:35.163264,15.34392497,.00019951,53.1574,291.5760,82.9811,277.1418,0,U,65882,999,3929,-.82858954E-4,-.3175E-4,0
STARLINK-35367,2025-224B,2026-06-12T01:16:23.872512,15.34402357,.00011019,53.1592,291.5007,123.7398,236.3710,0,U,65883,999,3929,.54801714E-3,.18186E-3,0
STARLINK-35384,2025-224C,2026-06-12T01:45:09.264096,15.30212634,.00009179,53.1601,293.0336,90.6896,269.4209,0,U,65884,999,3927,.54983419E-3,.15967E-3,0
STARLINK-35415,2025-224D,2026-06-11T15:44:31.152768,15.34448943,.00013438,53.1592,293.2859,119.7697,240.3439,0,U,65885,999,3918,.14618044E-2,.49416E-3,0
STARLINK-35413,2025-224E,2026-06-11T15:38:28.668480,15.34408660,.0001077,53.1603,293.2567,107.8721,252.2400,0,U,65886,999,3918,.80343521E-3,.26874E-3,0
STARLINK-35332,2025-224F,2026-06-11T13:52:33.680640,15.34406681,.000131,53.1596,293.5077,107.1850,252.9296,0,U,65887,999,3925,.79326E-3,.26526E-3,0
STARLINK-35362,2025-224G,2026-06-12T01:55:48.348480,15.30173178,.00012833,53.1612,293.0833,92.8936,267.2211,0,U,65888,999,3927,.76920321E-3,.22472E-3,0
STARLINK-35193,2025-224H,2026-06-12T02:09:28.208448,15.30199333,.00008673,53.1609,293.1315,87.2021,272.9079,0,U,65889,999,3930,.56775164E-3,.16493E-3,0
STARLINK-34542,2025-224J,2026-06-11T15:06:33.465600,15.30167385,.0001453,53.1627,295.2450,99.2650,260.8516,0,U,65890,999,3925,.69638E-3,.20301E-3,0
STARLINK-34791,2025-224K,2026-06-12T02:18:35.417664,15.30211563,.00016904,53.1618,293.1775,43.9464,316.1671,0,U,65891,999,3932,.67710266E-3,.19755E-3,0
STARLINK-34853,2025-224L,2026-06-12T01:25:29.241408,15.34414569,.00013759,53.1588,291.5363,68.8229,291.2921,0,U,65892,999,3927,.10037814E-2,.33706E-3,0
STARLINK-34921,2025-224M,2026-06-12T02:00:21.005280,15.30212996,.00006461,53.1623,293.0919,56.7395,303.3668,0,U,65893,999,3932,.11116106E-2,.32722E-3,0
STARLINK-34672,2025-224N,2026-06-12T01:49:43.091616,15.30196509,.0001429,53.1598,293.0456,81.1520,278.9642,0,U,65894,999,3932,.54260521E-3,.15744E-3,0
STARLINK-34898,2025-224P,2026-06-12T18:43:17.882112,15.34415954,.0001164,53.1599,288.2038,90.1067,270.0068,0,U,65895,999,3945,.10066E-2,.33803E-3,0
STARLINK-34906,2025-224Q,2026-06-12T02:09:58.457088,15.31702353,.00012805,53.1609,292.4264,83.5963,276.5184,0,U,65896,999,3933,.10584443E-2,.32626E-3,0
STARLINK-34934,2025-224R,2026-06-12T01:13:22.334880,15.34402307,.00011483,53.1589,291.4700,72.6813,287.4315,0,U,65897,999,3929,.98022794E-3,.3289E-3,0
STARLINK-34936,2025-224S,2026-06-12T01:22:27.068736,15.34364224,.00009929,53.1589,291.5118,89.1625,270.9492,0,U,65898,999,3934,.63825014E-3,.21225E-3,0
STARLINK-35272,2025-224T,2026-06-11T15:35:26.673792,15.34405028,.00009598,53.1599,293.2336,92.0118,268.0995,0,U,65899,999,3927,.79377855E-3,.26542E-3,0
STARLINK-35264,2025-224U,2026-06-11T15:29:23.704800,15.34362831,.00010293,53.1599,293.2060,110.6994,249.4119,0,U,65900,999,3927,.7596182E-3,.25345E-3,0
STARLINK-35249,2025-224V,2026-06-12T01:52:45.329952,15.30206033,.00014203,53.1605,293.0579,73.6466,286.4690,0,U,65901,999,3930,.49880422E-3,.14445E-3,0
STARLINK-35278,2025-224W,2026-06-12T02:07:56.212320,15.30173337,.00014244,53.1608,293.1219,80.0351,280.0811,0,U,65902,999,3932,.80637453E-3,.23579E-3,0
STARLINK-35210,2025-224X,2026-06-12T02:21:37.665504,15.30211878,.00013119,53.1610,293.1822,86.4231,273.6920,0,U,65903,999,3930,.66298543E-3,.19335E-3,0
